{
  "type": "FeatureCollection",
  "features": [
    {
      "type": "Feature",
      "properties": {
        "norad_id": 30389,
        "name": "FENGYUN 1C DEB",
        "group": "fengyun-1c-debris",
        "lat": 69.28913581968662,
        "lon": -73.19923060710053,
        "alt_km": 735.0065782887414,
        "timestamp": "2025-12-26T17:24:54.995486+00:00",
        "meta_object_name": "FENGYUN 1C DEB",
        "meta_object_id": "1999-025ADC",
        "meta_epoch": "2025-12-26T03:53:57.916896",
        "meta_mean_motion": 14.44257116,
        "meta_eccentricity": 0.00146884,
        "meta_inclination": 98.8367,
        "meta_ra_of_asc_node": 81.9196,
        "meta_arg_of_pericenter": 185.7033,
        "meta_mean_anomaly": 236.8454,
        "meta_ephemeris_type": 0,
        "meta_classification_type": "U",
        "meta_norad_cat_id": 30389,
        "meta_element_set_no": 999,
        "meta_rev_at_epoch": 97980,
        "meta_bstar": 0.0022748999,
        "meta_mean_motion_dot": 7.788e-05,
        "meta_mean_motion_ddot": 0,
        "tle_line1": "1 30389U 99025ADC 25360.16247589  .00007788  00000+0  22749-2 0  9991",
        "tle_line2": "2 30389  98.8367  81.9196 0014688 185.7033 236.8454 14.44257116979804"
      },
      "geometry": {
        "type": "Point",
        "coordinates": [
          -73.19923060710053,
          69.28913581968662
        ]
      }
    },
    {
      "type": "Feature",
      "properties": {
        "norad_id": 30390,
        "name": "FENGYUN 1C DEB",
        "group": "fengyun-1c-debris",
        "lat": -50.59474281572496,
        "lon": 95.0125393012161,
        "alt_km": 847.2039823905852,
        "timestamp": "2025-12-26T17:24:54.995496+00:00",
        "meta_object_name": "FENGYUN 1C DEB",
        "meta_object_id": "1999-025ADD",
        "meta_epoch": "2025-12-26T04:31:08.299200",
        "meta_mean_motion": 14.2984539,
        "meta_eccentricity": 0.00672409,
        "meta_inclination": 98.8226,
        "meta_ra_of_asc_node": 83.5712,
        "meta_arg_of_pericenter": 126.0973,
        "meta_mean_anomaly": 298.204,
        "meta_ephemeris_type": 0,
        "meta_classification_type": "U",
        "meta_norad_cat_id": 30390,
        "meta_element_set_no": 999,
        "meta_rev_at_epoch": 97576,
        "meta_bstar": 0.0016887562,
        "meta_mean_motion_dot": 4.408e-05,
        "meta_mean_motion_ddot": 0,
        "tle_line1": "1 30390U 99025ADD 25360.18829050  .00004408  00000+0  16888-2 0  9997",
        "tle_line2": "2 30390  98.8226  83.5712 0067240 126.0973 298.2040 14.29845390975769"
      },
      "geometry": {
        "type": "Point",
        "coordinates": [
          95.0125393012161,
          -50.59474281572496
        ]
      }
    },
    {
      "type": "Feature",
      "properties": {
        "norad_id": 30391,
        "name": "FENGYUN 1C DEB",
        "group": "fengyun-1c-debris",
        "lat": -78.88040837522846,
        "lon": 174.69714014098,
        "alt_km": 805.8708768477873,
        "timestamp": "2025-12-26T17:24:54.995506+00:00",
        "meta_object_name": "FENGYUN 1C DEB",
        "meta_object_id": "1999-025ADE",
        "meta_epoch": "2025-12-26T02:54:32.906016",
        "meta_mean_motion": 14.16295531,
        "meta_eccentricity": 0.00721035,
        "meta_inclination": 98.7795,
        "meta_ra_of_asc_node": 45.9398,
        "meta_arg_of_pericenter": 223.7169,
        "meta_mean_anomaly": 198.8602,
        "meta_ephemeris_type": 0,
        "meta_classification_type": "U",
        "meta_norad_cat_id": 30391,
        "meta_element_set_no": 999,
        "meta_rev_at_epoch": 97068,
        "meta_bstar": 0.0010713507,
        "meta_mean_motion_dot": 2.135e-05,
        "meta_mean_motion_ddot": 0,
        "tle_line1": "1 30391U 99025ADE 25360.12121419  .00002135  00000+0  10714-2 0  9993",
        "tle_line2": "2 30391  98.7795  45.9398 0072103 223.7169 198.8602 14.16295531970685"
      },
      "geometry": {
        "type": "Point",
        "coordinates": [
          174.69714014098,
          -78.88040837522846
        ]
      }
    },
    {
      "type": "Feature",
      "properties": {
        "norad_id": 30392,
        "name": "FENGYUN 1C DEB",
        "group": "fengyun-1c-debris",
        "lat": 10.519633106858285,
        "lon": -159.42227152525967,
        "alt_km": 979.8142566742899,
        "timestamp": "2025-12-26T17:24:54.995516+00:00",
        "meta_object_name": "FENGYUN 1C DEB",
        "meta_object_id": "1999-025ADF",
        "meta_epoch": "2025-12-25T23:50:16.869120",
        "meta_mean_motion": 14.07483822,
        "meta_eccentricity": 0.0180425,
        "meta_inclination": 98.7852,
        "meta_ra_of_asc_node": 18.2197,
        "meta_arg_of_pericenter": 319.4475,
        "meta_mean_anomaly": 102.0034,
        "meta_ephemeris_type": 0,
        "meta_classification_type": "U",
        "meta_norad_cat_id": 30392,
        "meta_element_set_no": 999,
        "meta_rev_at_epoch": 96857,
        "meta_bstar": 0.00064922,
        "meta_mean_motion_dot": 1.224e-05,
        "meta_mean_motion_ddot": 0,
        "tle_line1": "1 30392U 99025ADF 25359.99325080  .00001224  00000+0  64922-3 0  9996",
        "tle_line2": "2 30392  98.7852  18.2197 0180425 319.4475 102.0034 14.07483822968573"
      },
      "geometry": {
        "type": "Point",
        "coordinates": [
          -159.42227152525967,
          10.519633106858285
        ]
      }
    },
    {
      "type": "Feature",
      "properties": {
        "norad_id": 30393,
        "name": "FENGYUN 1C DEB",
        "group": "fengyun-1c-debris",
        "lat": -16.922708487128315,
        "lon": -124.30431631966043,
        "alt_km": 855.4954190387743,
        "timestamp": "2025-12-26T17:24:54.995526+00:00",
        "meta_object_name": "FENGYUN 1C DEB",
        "meta_object_id": "1999-025ADG",
        "meta_epoch": "2025-12-26T03:00:20.190816",
        "meta_mean_motion": 13.98993082,
        "meta_eccentricity": 0.00701914,
        "meta_inclination": 99.1637,
        "meta_ra_of_asc_node": 57.9105,
        "meta_arg_of_pericenter": 223.0645,
        "meta_mean_anomaly": 192.0932,
        "meta_ephemeris_type": 0,
        "meta_classification_type": "U",
        "meta_norad_cat_id": 30393,
        "meta_element_set_no": 999,
        "meta_rev_at_epoch": 96517,
        "meta_bstar": 6.7566945e-05,
        "meta_mean_motion_dot": 5.4e-07,
        "meta_mean_motion_ddot": 0,
        "tle_line1": "1 30393U 99025ADG 25360.12523369  .00000054  00000+0  67567-4 0  9993",
        "tle_line2": "2 30393  99.1637  57.9105 0070191 223.0645 192.0932 13.98993082965178"
      },
      "geometry": {
        "type": "Point",
        "coordinates": [
          -124.30431631966043,
          -16.922708487128315
        ]
      }
    },
    {
      "type": "Feature",
      "properties": {
        "norad_id": 30394,
        "name": "FENGYUN 1C DEB",
        "group": "fengyun-1c-debris",
        "lat": 5.4602409524463935,
        "lon": 28.408137185431297,
        "alt_km": 875.6397718748285,
        "timestamp": "2025-12-26T17:24:54.995536+00:00",
        "meta_object_name": "FENGYUN 1C DEB",
        "meta_object_id": "1999-025ADH",
        "meta_epoch": "2025-12-25T14:27:05.779008",
        "meta_mean_motion": 13.95795337,
        "meta_eccentricity": 0.0089762,
        "meta_inclination": 99.4335,
        "meta_ra_of_asc_node": 28.1689,
        "meta_arg_of_pericenter": 66.9183,
        "meta_mean_anomaly": 57.2763,
        "meta_ephemeris_type": 0,
        "meta_classification_type": "U",
        "meta_norad_cat_id": 30394,
        "meta_element_set_no": 999,
        "meta_rev_at_epoch": 96283,
        "meta_bstar": 0.0003852,
        "meta_mean_motion_dot": 4.98e-06,
        "meta_mean_motion_ddot": 0,
        "tle_line1": "1 30394U 99025ADH 25359.60215022  .00000498  00000+0  38520-3 0  9997",
        "tle_line2": "2 30394  99.4335  28.1689 0089762  66.9183  57.2763 13.95795337962833"
      },
      "geometry": {
        "type": "Point",
        "coordinates": [
          28.408137185431297,
          5.4602409524463935
        ]
      }
    },
    {
      "type": "Feature",
      "properties": {
        "norad_id": 30395,
        "name": "FENGYUN 1C DEB",
        "group": "fengyun-1c-debris",
        "lat": -20.96114595275277,
        "lon": -167.57020338662974,
        "alt_km": 1006.9343469235273,
        "timestamp": "2025-12-26T17:24:54.995546+00:00",
        "meta_object_name": "FENGYUN 1C DEB",
        "meta_object_id": "1999-025ADJ",
        "meta_epoch": "2025-12-25T13:31:31.060416",
        "meta_mean_motion": 13.96709429,
        "meta_eccentricity": 0.0159797,
        "meta_inclination": 98.93,
        "meta_ra_of_asc_node": 14.7545,
        "meta_arg_of_pericenter": 350.8774,
        "meta_mean_anomaly": 131.3282,
        "meta_ephemeris_type": 0,
        "meta_classification_type": "U",
        "meta_norad_cat_id": 30395,
        "meta_element_set_no": 999,
        "meta_rev_at_epoch": 96202,
        "meta_bstar": 0.00056283,
        "meta_mean_motion_dot": 8.26e-06,
        "meta_mean_motion_ddot": 0,
        "tle_line1": "1 30395U 99025ADJ 25359.56355394  .00000826  00000+0  56283-3 0  9991",
        "tle_line2": "2 30395  98.9300  14.7545 0159797 350.8774 131.3282 13.96709429962028"
      },
      "geometry": {
        "type": "Point",
        "coordinates": [
          -167.57020338662974,
          -20.96114595275277
        ]
      }
    }
  ]
}